#aV2007 12 14  0  0   .00000000      96 DD+AD WGS84 FIT  NGA
## 1457 432000.00000000   900.00000000 54448  .0000000000000
+   31     1  2  3  4  5  6  7  8  9 10 11 12 13 14 15 16 17
+         18 19 20 21 22 23 24 25 26 27 28 30 31 32  0  0  0
+          0  0  0  0  0  0  0  0  0  0  0  0  0  0  0  0  0
+          0  0  0  0  0  0  0  0  0  0  0  0  0  0  0  0  0
+          0  0  0  0  0  0  0  0  0  0  0  0  0  0  0  0  0
++         0  0  0  0  0  0  0  0  0  0  0  0  0  0  0  0  0
++         0  0  0  0  0  0  0  0  0  0  0  0  0  0  0  0  0
++         0  0  0  0  0  0  0  0  0  0  0  0  0  0  0  0  0
++         0  0  0  0  0  0  0  0  0  0  0  0  0  0  0  0  0
++         0  0  0  0  0  0  0  0  0  0  0  0  0  0  0  0  0
%c cc cc ccc ccc cccc cccc cccc cccc ccccc ccccc ccccc ccccc
%c cc cc ccc ccc cccc cccc cccc cccc ccccc ccccc ccccc ccccc
%f  0.0000000  0.000000000  0.00000000000  0.000000000000000
%f  0.0000000  0.000000000  0.00000000000  0.000000000000000
%i    0    0    0    0      0      0      0      0         0
%i    0    0    0    0      0      0      0      0         0
/*      NGA, ST. LOUIS,MO.                                  
/*   EPHEMERIS COMPUTED FROM  3 DAYS OF DATA                
/* CCCCCCCCCCCCCCCCCCCCCCCCCCCCCCCCCCCCCCCCCCCCCCCCCCCCCCCCC
/* CCCCCCCCCCCCCCCCCCCCCCCCCCCCCCCCCCCCCCCCCCCCCCCCCCCCCCCCC
*  2007 12 14  1  0   .00000000                                                 
P  1 -14477.958746      6.258148 -22048.051708    172.440269                    
V  1  -1902.287912 -28384.962709   1156.158247       .024894                    
P  2  22936.973200 -11050.015380  -7149.905083    158.196242                    
V  2  -5049.179118   8103.545417 -29805.532850       .028428                    
P  3 -12942.963839  11102.756757  20044.098895    157.905726                    
V  3  -7216.289461 -25241.606406   9555.409747       .053625                    
P  4  21242.680442  -1055.660730 -16217.119147    -36.649210                    
V  4 -15221.762657  13627.534441 -20570.722390      -.050827                    
P  5  -4856.660783 -16975.591738 -20142.217397    595.177937                    
V  5  24173.153225   6601.157371 -11403.069643       .203653                    
P  6  -7493.473199 -25092.986626   4526.235147    190.468278                    
V  6   2673.403764  -6066.668792 -30434.126616      -.121605                    
P  7 -10234.747707 -23349.144797   7733.912885    -25.997713                    
V  7   1549.416908  -9887.276497 -29080.331553      -.029612                    
P  8  15787.737833   5898.137322  20551.745321   -133.352471                    
V  8 -21300.864397  15147.380834  11506.590903      -.013178                    
P  9  11234.166108 -20578.558331 -12918.877453    100.898370                    
V  9  13286.784183  -8193.197735  26016.793061       .016223                    
P 10  19542.924376  -4393.946883  17485.762253   -173.010070                    
V 10  19718.283318  10514.331554 -18940.519820      -.123067                    
P 11  -6998.737936  22340.543172 -12385.758007     26.557071                    
V 11 -13781.490121   8832.633431  24310.775877       .001307                    
P 12   1612.007027 -15508.150811 -21420.855142   -351.314531                    
V 12  25394.435139  10285.962672  -5444.718546      -.011487                    
P 13   6312.521502  24928.568592   6599.989052    227.681774                    
V 13   -956.054737   8589.284496 -31015.588671       .025037                    
P 14 -13767.785749 -12328.727739 -19011.508454   -313.310325                    
V 14  -1389.603771 -24232.596449  16539.949726       .027140                    
P 15   7483.552289 -20995.549534  14486.913713    -71.680251                    
V 15   4576.026715  17899.183305  23602.684098       .017286                    
P 16 -22507.168107    849.809451  14283.706303    128.784565                    
V 16 -15623.993799  -9017.762354 -24038.491057       .013542                    
P 17  14289.133794  13215.356430 -18120.722732     46.688241                    
V 17   1088.252407  23020.299112  17484.734798      -.009837                    
P 18 -16123.406684 -17407.771977  12451.591381   -219.468018                    
V 18  14941.788124   4500.512627  25650.207323       .024943                    
P 19  -8890.850100  20573.903028  14212.021204     11.915267                    
V 19  -3298.028127 -17821.951507  24030.887122       .018405                    
P 20   1549.299957  16647.977109 -20751.073014    124.546282                    
V 20 -24546.156266  -9029.479233  -9077.965589      -.007084                    
P 21  -7644.998511 -13868.972916  21443.122508     75.287979                    
V 21  22309.912862 -15217.317769  -2492.972031      -.005649                    
P 22 -23931.856716 -11569.398100    150.571845    205.085560                    
V 22   1377.619139  -2879.429127  31443.994653       .005399                    
P 23  -1038.875457  25735.538966  -6022.758211    317.696975                    
V 23  -3477.024197  -7240.734873 -30892.967704       .032340                    
P 24   5875.750912 -19157.713724  17757.067694     53.687236                    
V 24  19166.326503 -11106.618553 -18225.557353       .031168                    
P 25   1608.057593  17613.769830  20227.354661    490.705003                    
V 25 -18957.803994  16062.350896 -12558.575447       .038434                    
P 26   9254.354486 -18033.813678  16394.093541    124.985665                    
V 26   3437.060630  21644.107264  21814.303793       .114640                    
P 27   7954.991786  13334.788235  22201.034962    154.013714                    
V 27 -20432.958269  17047.026786  -3200.376859       .025758                    
P 28  23099.318631  13131.484369   3455.860322    -11.974255                    
V 28  -4551.406822    567.108839  31174.764382      -.005075                    
P 30 -11067.917423 -17376.257808 -17149.727277     55.993317                    
V 30  20421.853354   5773.023754 -19309.088554       .015508                    
P 31 -21756.296056   3862.925924 -14588.810759     -1.273037                    
V 31  13797.807829 -12985.985127 -23602.602085      -.014641                    
P 32 -24104.356549  -5912.525772  -8766.953641    170.636810                    
V 32  -9299.377499  -7712.318701  29385.035647       .120965                    
EOF
